{
    "links": {
        "self": "http://www.neowsapp.com/rest/v1/neo/3439808?api_key=iIulBulltgU6a56xZRHN4H3l9WmuAYTsLGpBGhQ2"
    },
    "id": "3439808",
    "neo_reference_id": "3439808",
    "name": "(2008 WE14)",
    "designation": "2008 WE14",
    "nasa_jpl_url": "http://ssd.jpl.nasa.gov/sbdb.cgi?sstr=3439808",
    "absolute_magnitude_h": 25.4,
    "estimated_diameter": {
        "kilometers": {
            "estimated_diameter_min": 0.022108281,
            "estimated_diameter_max": 0.0494356193
        },
        "meters": {
            "estimated_diameter_min": 22.1082810359,
            "estimated_diameter_max": 49.435619262
        },
        "miles": {
            "estimated_diameter_min": 0.0137374447,
            "estimated_diameter_max": 0.0307178602
        },
        "feet": {
            "estimated_diameter_min": 72.5337327539,
            "estimated_diameter_max": 162.1903570994
        }
    },
    "is_potentially_hazardous_asteroid": false,
    "close_approach_data": [
        {
            "close_approach_date": "2008-11-15",
            "close_approach_date_full": "2008-Nov-15 05:36",
            "epoch_date_close_approach": 1226727360000,
            "relative_velocity": {
                "kilometers_per_second": "10.199337608",
                "kilometers_per_hour": "36717.6153886996",
                "miles_per_hour": "22814.8982952728"
            },
            "miss_distance": {
                "astronomical": "0.0557908311",
                "lunar": "21.7026332979",
                "kilometers": "8346189.498089757",
                "miles": "5186081.6723103666"
            },
            "orbiting_body": "Earth"
        }
    ],
    "orbital_data": {
        "orbit_id": "6",
        "orbit_determination_date": "2017-04-06 09:02:08",
        "first_observation_date": "2008-11-21",
        "last_observation_date": "2008-11-21",
        "data_arc_in_days": null,
        "observations_used": 13,
        "orbit_uncertainty": "9",
        "minimum_orbit_intersection": ".0546869",
        "jupiter_tisserand_invariant": "4.190",
        "epoch_osculation": "2454791.5",
        "eccentricity": ".3878994611266059",
        "semi_major_axis": "1.632102919679979",
        "inclination": "13.98498188705362",
        "ascending_node_longitude": "59.07687118699286",
        "orbital_period": "761.5873809163825",
        "perihelion_distance": ".9990110766329553",
        "perihelion_argument": "324.0859524823657",
        "aphelion_distance": "2.265194762727003",
        "perihelion_time": "2454760.047080946512",
        "mean_anomaly": "14.8676975787482",
        "mean_motion": ".4726969078280011",
        "equinox": "J2000",
        "orbit_class": {
            "orbit_class_type": "APO",
            "orbit_class_description": "Near-Earth asteroid orbits which cross the Earth’s orbit similar to that of 1862 Apollo",
            "orbit_class_range": "a (semi-major axis) > 1.0 AU; q (perihelion) < 1.017 AU"
        }
    },
    "is_sentry_object": false
}